TEVEL2-1                
1 63217U 25052H   26068.64782323  .00020683  00000+0  70600-3 0  9994
2 63217  97.3991 324.7682 0004767 104.8919 255.2849 15.30341923 54855
STARLINK-33837          
1 63501U 25071J   26068.47868035  .00020767  00000+0  71147-3 0  9997
2 63501  53.1575 141.1847 0001329  72.9359 287.1787 15.30193046 52671
